{
  "norad_id": 45625,
  "name": "GAOFEN-9 02",
  "history": [
    {
      "epoch": "2026-03-28T23:10:10.224768",
      "apogee_km": 499.33504419888686,
      "perigee_km": 482.13566258089304,
      "latitude_deg": 69.25398622538235,
      "longitude_deg": -84.82197248004377,
      "semi_major_axis_km": 6868.87235338989,
      "eccentricity": 0.00125198,
      "inclination_deg": 97.5641,
      "raan_deg": 244.3538,
      "arg_perigee_deg": 356.2874,
      "mean_anomaly_deg": 3.8268,
      "mean_motion_rev_day": 15.25016678
    },
    {
      "epoch": "2026-03-29T03:53:37.706208",
      "apogee_km": 499.27470600413017,
      "perigee_km": 482.2041742750953,
      "latitude_deg": -68.86044741168206,
      "longitude_deg": -65.92477088002488,
      "semi_major_axis_km": 6868.876440139612,
      "eccentricity": 0.0012426,
      "inclination_deg": 97.5643,
      "raan_deg": 244.5523,
      "arg_perigee_deg": 355.8381,
      "mean_anomaly_deg": 4.2751,
      "mean_motion_rev_day": 15.25015317
    }
  ]
}